{"fetched_at":"2026-03-29T02:12:04Z","count":15717,"tles":[{"name":"STARLINK-3120","line1":"1 49419U 21104M   26087.57195615  .00003698  00000+0  25028-3 0  9992","line2":"2 49419  53.2160 144.3554 0001291  85.3545 274.7595 15.08847858241476","category":"Starlink"}]}